start=new Date('2023-02-05T00:00:00.000Z').valueOf();
sats=[{"NORAD_CAT_ID":"45573","GP_ID":"224437890","TLE_LINE1":"1 45573U 20025AU  23035.91460504 -.00000628  00000-0 -23254-4 0  9993","RA_OF_ASC_NODE":"103.8902","APOAPSIS":"547.921","LAUNCH_DATE":"2020-04-22","ELEMENT_SET_NO":"999","CLASSIFICATION_TYPE":"U","EPHEMERIS_TYPE":"0","MEAN_ELEMENT_THEORY":"SGP4","TIME_SYSTEM":"UTC","BSTAR":"-0.00002325400000","PERIOD":"95.592","OBJECT_ID":"2020-025AU","RCS_SIZE":"LARGE","REV_AT_EPOCH":"15507","CENTER_NAME":"EARTH","MEAN_MOTION":"15.06408168","TLE_LINE2":"2 45573  53.0538 103.8902 0001057  82.8499 277.2610 15.06408168155078","PERIAPSIS":"546.457","DECAY_DATE":null,"REF_FRAME":"TEME","INCLINATION":"53.0538","ARG_OF_PERICENTER":"82.8499","EPOCH":"2023-02-04T21:57:01.875456","SEMIMAJOR_AXIS":"6925.324","OBJECT_NAME":"STARLINK-1321","SITE":"AFETR","MEAN_ANOMALY":"277.2610","FILE":"3772514","MEAN_MOTION_DOT":"-0.00000628","COUNTRY_CODE":"US","ECCENTRICITY":"0.00010570","MEAN_MOTION_DDOT":"0.0000000000000","OBJECT_TYPE":"PAYLOAD"},{"RA_OF_ASC_NODE":"104.0685","TLE_LINE1":"1 45574U 20025AV  23035.87406839 -.00000009  00000-0  18308-4 0  9996","GP_ID":"224438138","NORAD_CAT_ID":"45574","ELEMENT_SET_NO":"999","EPHEMERIS_TYPE":"0","CLASSIFICATION_TYPE":"U","LAUNCH_DATE":"2020-04-22","APOAPSIS":"548.146","BSTAR":"0.00001830800000","TIME_SYSTEM":"UTC","MEAN_ELEMENT_THEORY":"SGP4","RCS_SIZE":"LARGE","OBJECT_ID":"2020-025AV","PERIOD":"95.592","REV_AT_EPOCH":"15538","CENTER_NAME":"EARTH","PERIAPSIS":"546.291","DECAY_DATE":null,"ARG_OF_PERICENTER":"84.7718","REF_FRAME":"TEME","INCLINATION":"53.0550","TLE_LINE2":"2 45574  53.0550 104.0685 0001339  84.7718 275.3423 15.06398325155380","MEAN_MOTION":"15.06398325","EPOCH":"2023-02-04T20:58:39.508896","OBJECT_NAME":"STARLINK-1324","SEMIMAJOR_AXIS":"6925.354","SITE":"AFETR","MEAN_MOTION_DOT":"-0.00000009","COUNTRY_CODE":"US","FILE":"3772514","MEAN_ANOMALY":"275.3423","ECCENTRICITY":"0.00013390","OBJECT_TYPE":"PAYLOAD","MEAN_MOTION_DDOT":"0.0000000000000"},{"MEAN_MOTION_DOT":"0.00092022","COUNTRY_CODE":"US","FILE":"3771952","MEAN_ANOMALY":"299.6229","OBJECT_TYPE":"PAYLOAD","MEAN_MOTION_DDOT":"0.0000000000000","ECCENTRICITY":"0.00043930","EPOCH":"2023-02-04T09:04:05.151360","DECAY_DATE":null,"ARG_OF_PERICENTER":"60.5208","PERIAPSIS":"465.767","REF_FRAME":"TEME","INCLINATION":"53.0034","MEAN_MOTION":"15.32360201","TLE_LINE2":"2 45575  53.0034  70.3091 0004393  60.5208 299.6229 15.32360201155769","SITE":"AFETR","OBJECT_NAME":"STARLINK-1326","SEMIMAJOR_AXIS":"6846.910","RCS_SIZE":"LARGE","OBJECT_ID":"2020-025AW","PERIOD":"93.973","REV_AT_EPOCH":"15576","CENTER_NAME":"EARTH","ELEMENT_SET_NO":"999","CLASSIFICATION_TYPE":"U","EPHEMERIS_TYPE":"0","LAUNCH_DATE":"2020-04-22","APOAPSIS":"471.783","RA_OF_ASC_NODE":"70.3091","TLE_LINE1":"1 45575U 20025AW  23035.37783740  .00092022  00000-0  28799-2 0  9999","GP_ID":"224399975","NORAD_CAT_ID":"45575","BSTAR":"0.00287990000000","TIME_SYSTEM":"UTC","MEAN_ELEMENT_THEORY":"SGP4"},{"SEMIMAJOR_AXIS":"6925.362","OBJECT_NAME":"STARLINK-1328","SITE":"AFETR","DECAY_DATE":null,"REF_FRAME":"TEME","PERIAPSIS":"546.349","INCLINATION":"53.0526","ARG_OF_PERICENTER":"85.0196","TLE_LINE2":"2 45576  53.0526 103.9644 0001268  85.0196 275.0938 15.06395453155380","MEAN_MOTION":"15.06395453","EPOCH":"2023-02-04T21:35:48.864768","ECCENTRICITY":"0.00012680","OBJECT_TYPE":"PAYLOAD","MEAN_MOTION_DDOT":"0.0000000000000","MEAN_MOTION_DOT":"0.00001302","COUNTRY_CODE":"US","MEAN_ANOMALY":"275.0938","FILE":"3772514","TIME_SYSTEM":"UTC","BSTAR":"0.00010628000000","MEAN_ELEMENT_THEORY":"SGP4","TLE_LINE1":"1 45576U 20025AX  23035.89987112  .00001302  00000-0  10628-3 0  9990","RA_OF_ASC_NODE":"103.9644","GP_ID":"224437141","NORAD_CAT_ID":"45576","EPHEMERIS_TYPE":"0","ELEMENT_SET_NO":"999","CLASSIFICATION_TYPE":"U","APOAPSIS":"548.106","LAUNCH_DATE":"2020-04-22","REV_AT_EPOCH":"15538","CENTER_NAME":"EARTH","OBJECT_ID":"2020-025AX","RCS_SIZE":"LARGE","PERIOD":"95.592"},{"TLE_LINE2":"2 45577  53.0511  99.4425 0002725  50.3638 309.7595 15.15578466155433","MEAN_MOTION":"15.15578466","PERIAPSIS":"517.345","DECAY_DATE":null,"REF_FRAME":"TEME","INCLINATION":"53.0511","ARG_OF_PERICENTER":"50.3638","EPOCH":"2023-02-04T21:13:11.068896","OBJECT_NAME":"STARLINK-1330","SEMIMAJOR_AXIS":"6897.360","SITE":"AFETR","FILE":"3772514","MEAN_ANOMALY":"309.7595","COUNTRY_CODE":"US","MEAN_MOTION_DOT":"0.00025307","ECCENTRICITY":"0.00027250","MEAN_MOTION_DDOT":"0.0000000000000","OBJECT_TYPE":"PAYLOAD","NORAD_CAT_ID":"45577","TLE_LINE1":"1 45577U 20025AY  23035.88415589  .00025307  00000-0  13290-2 0  9992","GP_ID":"224437391","RA_OF_ASC_NODE":"99.4425","LAUNCH_DATE":"2020-04-22","APOAPSIS":"521.104","ELEMENT_SET_NO":"999","EPHEMERIS_TYPE":"0","CLASSIFICATION_TYPE":"U","MEAN_ELEMENT_THEORY":"SGP4","BSTAR":"0.00132900000000","TIME_SYSTEM":"UTC","PERIOD":"95.013","RCS_SIZE":"LARGE","OBJECT_ID":"2020-025AY","REV_AT_EPOCH":"15543","CENTER_NAME":"EARTH"},{"OBJECT_ID":"2020-025AZ","RCS_SIZE":"LARGE","PERIOD":"95.592","REV_AT_EPOCH":"15538","CENTER_NAME":"EARTH","TLE_LINE1":"1 45578U 20025AZ  23035.89249803  .00001941  00000-0  14917-3 0  9994","GP_ID":"224438638","RA_OF_ASC_NODE":"103.9927","NORAD_CAT_ID":"45578","ELEMENT_SET_NO":"999","EPHEMERIS_TYPE":"0","CLASSIFICATION_TYPE":"U","LAUNCH_DATE":"2020-04-22","APOAPSIS":"548.058","TIME_SYSTEM":"UTC","BSTAR":"0.00014917000000","MEAN_ELEMENT_THEORY":"SGP4","MEAN_MOTION_DOT":"0.00001941","COUNTRY_CODE":"US","MEAN_ANOMALY":"247.3495","FILE":"3772514","ECCENTRICITY":"0.00012250","OBJECT_TYPE":"PAYLOAD","MEAN_MOTION_DDOT":"0.0000000000000","DECAY_DATE":null,"REF_FRAME":"TEME","PERIAPSIS":"546.361","INCLINATION":"53.0533","ARG_OF_PERICENTER":"112.7623","MEAN_MOTION":"15.06401363","TLE_LINE2":"2 45578  53.0533 103.9927 0001225 112.7623 247.3495 15.06401363155388","EPOCH":"2023-02-04T21:25:11.829792","SEMIMAJOR_AXIS":"6925.344","OBJECT_NAME":"STARLINK-1331","SITE":"AFETR"},{"PERIOD":"95.592","OBJECT_ID":"2020-025BA","RCS_SIZE":"LARGE","REV_AT_EPOCH":"15591","CENTER_NAME":"EARTH","LAUNCH_DATE":"2020-04-22","APOAPSIS":"548.224","CLASSIFICATION_TYPE":"U","ELEMENT_SET_NO":"999","EPHEMERIS_TYPE":"0","NORAD_CAT_ID":"45579","TLE_LINE1":"1 45579U 20025BA  23035.76719961  .00000122  00000-0  27106-4 0  9993","GP_ID":"224438374","RA_OF_ASC_NODE":"64.7115","MEAN_ELEMENT_THEORY":"SGP4","TIME_SYSTEM":"UTC","BSTAR":"0.00002710600000","MEAN_ANOMALY":"267.9290","FILE":"3772514","COUNTRY_CODE":"US","MEAN_MOTION_DOT":"0.00000122","MEAN_MOTION_DDOT":"0.0000000000000","OBJECT_TYPE":"PAYLOAD","ECCENTRICITY":"0.00014350","EPOCH":"2023-02-04T18:24:46.046304","MEAN_MOTION":"15.06394563","TLE_LINE2":"2 45579  53.0566  64.7115 0001435  92.1863 267.9290 15.06394563155911","DECAY_DATE":null,"PERIAPSIS":"546.236","REF_FRAME":"TEME","INCLINATION":"53.0566","ARG_OF_PERICENTER":"92.1863","SITE":"AFETR","SEMIMAJOR_AXIS":"6925.365","OBJECT_NAME":"STARLINK-1332"},{"ECCENTRICITY":"0.00013990","OBJECT_TYPE":"PAYLOAD","MEAN_MOTION_DDOT":"0.0000000000000","COUNTRY_CODE":"US","MEAN_MOTION_DOT":"0.00000555","MEAN_ANOMALY":"259.7802","FILE":"3772514","SEMIMAJOR_AXIS":"6925.313","OBJECT_NAME":"STARLINK-1333","SITE":"AFETR","DECAY_DATE":null,"REF_FRAME":"TEME","PERIAPSIS":"546.209","INCLINATION":"53.0543","ARG_OF_PERICENTER":"100.3345","TLE_LINE2":"2 45580  53.0543 115.1448 0001399 100.3345 259.7802 15.06411743155192","MEAN_MOTION":"15.06411743","EPOCH":"2023-02-04T15:12:18.881568","REV_AT_EPOCH":"15519","CENTER_NAME":"EARTH","OBJECT_ID":"2020-025BB","RCS_SIZE":"LARGE","PERIOD":"95.591","TIME_SYSTEM":"UTC","BSTAR":"0.00005611100000","MEAN_ELEMENT_THEORY":"SGP4","TLE_LINE1":"1 45580U 20025BB  23035.63355187  .00000555  00000-0  56111-4 0  9995","RA_OF_ASC_NODE":"115.1448","GP_ID":"224437642","NORAD_CAT_ID":"45580","EPHEMERIS_TYPE":"0","ELEMENT_SET_NO":"999","CLASSIFICATION_TYPE":"U","APOAPSIS":"548.146","LAUNCH_DATE":"2020-04-22"},{"CENTER_NAME":"EARTH","REV_AT_EPOCH":"15537","RCS_SIZE":"LARGE","OBJECT_ID":"2020-025BC","PERIOD":"95.592","BSTAR":"0.00006613800000","TIME_SYSTEM":"UTC","MEAN_ELEMENT_THEORY":"SGP4","TLE_LINE1":"1 45581U 20025BC  23035.90355461  .00000704  00000-0  66138-4 0  9997","RA_OF_ASC_NODE":"103.9380","GP_ID":"224437891","NORAD_CAT_ID":"45581","EPHEMERIS_TYPE":"0","ELEMENT_SET_NO":"999","CLASSIFICATION_TYPE":"U","LAUNCH_DATE":"2020-04-22","APOAPSIS":"548.098","ECCENTRICITY":"0.00012660","OBJECT_TYPE":"PAYLOAD","MEAN_MOTION_DDOT":"0.0000000000000","COUNTRY_CODE":"US","MEAN_MOTION_DOT":"0.00000704","FILE":"3772514","MEAN_ANOMALY":"275.4532","OBJECT_NAME":"STARLINK-1335","SEMIMAJOR_AXIS":"6925.356","SITE":"AFETR","PERIAPSIS":"546.345","DECAY_DATE":null,"INCLINATION":"53.0562","ARG_OF_PERICENTER":"84.6602","REF_FRAME":"TEME","MEAN_MOTION":"15.06397440","TLE_LINE2":"2 45581  53.0562 103.9380 0001266  84.6602 275.4532 15.06397440155379","EPOCH":"2023-02-04T21:41:07.118304"},{"REV_AT_EPOCH":"15471","CENTER_NAME":"EARTH","RCS_SIZE":"LARGE","OBJECT_ID":"2020-025BD","PERIOD":"95.592","BSTAR":"0.00014347000000","TIME_SYSTEM":"UTC","MEAN_ELEMENT_THEORY":"SGP4","TLE_LINE1":"1 45582U 20025BD  23035.52758619  .00001856  00000-0  14347-3 0  9991","GP_ID":"224408201","RA_OF_ASC_NODE":"105.6245","NORAD_CAT_ID":"45582","ELEMENT_SET_NO":"999","EPHEMERIS_TYPE":"0","CLASSIFICATION_TYPE":"U","APOAPSIS":"548.036","LAUNCH_DATE":"2020-04-22","ECCENTRICITY":"0.00011990","OBJECT_TYPE":"PAYLOAD","MEAN_MOTION_DDOT":"0.0000000000000","MEAN_MOTION_DOT":"0.00001856","COUNTRY_CODE":"US","FILE":"3772043","MEAN_ANOMALY":"274.1770","OBJECT_NAME":"STARLINK-1337","SEMIMAJOR_AXIS":"6925.341","SITE":"AFETR","PERIAPSIS":"546.376","DECAY_DATE":null,"REF_FRAME":"TEME","ARG_OF_PERICENTER":"85.9356","INCLINATION":"53.0526","TLE_LINE2":"2 45582  53.0526 105.6245 0001199  85.9356 274.1770 15.06402457154716","MEAN_MOTION":"15.06402457","EPOCH":"2023-02-04T12:39:43.446816"}];
